[{"OBJECT_NAME":"TEVEL2-5","OBJECT_ID":"2025-052E","EPOCH":"2026-03-09T23:11:54.246048","MEAN_MOTION":15.30817434,"ECCENTRICITY":0.00047002,"INCLINATION":97.4013,"RA_OF_ASC_NODE":325.3677,"ARG_OF_PERICENTER":95.3936,"MEAN_ANOMALY":264.7842,"EPHEMERIS_TYPE":0,"CLASSIFICATION_TYPE":"U","NORAD_CAT_ID":63214,"ELEMENT_SET_NO":999,"REV_AT_EPOCH":5491,"BSTAR":0.00071764727,"MEAN_MOTION_DOT":0.00021339,"MEAN_MOTION_DDOT":0},{"OBJECT_NAME":"STARLINK-34145","OBJECT_ID":"2025-110Q","EPOCH":"2026-03-09T06:04:14.460096","MEAN_MOTION":15.30190973,"ECCENTRICITY":0.00012115,"INCLINATION":53.1599,"RA_OF_ASC_NODE":28.9353,"ARG_OF_PERICENTER":83.6813,"MEAN_ANOMALY":276.4326,"EPHEMERIS_TYPE":0,"CLASSIFICATION_TYPE":"U","NORAD_CAT_ID":64110,"ELEMENT_SET_NO":999,"REV_AT_EPOCH":4581,"BSTAR":0.0011312018,"MEAN_MOTION_DOT":0.00033285,"MEAN_MOTION_DDOT":0}]
